OBJECT_NAME,OBJECT_ID,EPOCH,MEAN_MOTION,ECCENTRICITY,INCLINATION,RA_OF_ASC_NODE,ARG_OF_PERICENTER,MEAN_ANOMALY,EPHEMERIS_TYPE,CLASSIFICATION_TYPE,NORAD_CAT_ID,ELEMENT_SET_NO,REV_AT_EPOCH,BSTAR,MEAN_MOTION_DOT,MEAN_MOTION_DDOT
STARLINK-36965,2026-099L,2026-07-20T17:59:05.227584,15.34404681,.00010318,53.1594,4.5073,130.5780,229.5312,0,U,68961,999,1242,.48829941E-3,.1616E-3,0
STARLINK-36765,2026-099M,2026-07-21T11:07:48.364608,15.34417620,.00009466,53.1603,1.1295,98.4338,261.6772,0,U,68962,999,1253,.65997754E-3,.22E-3,0
STARLINK-36764,2026-099N,2026-07-20T21:00:37.199520,15.34395230,.00010848,53.1589,3.8555,78.3730,281.7394,0,U,68963,999,1244,.28032036E-3,.9105E-4,0
STARLINK-36731,2026-099P,2026-07-20T17:49:59.888928,15.34406596,.0001169,53.1600,4.4456,73.4894,286.6237,0,U,68964,999,1242,.49609632E-3,.16425E-3,0
STARLINK-36664,2026-099Q,2026-07-21T10:58:43.438944,15.34392981,.00006504,53.1591,1.0840,72.6793,287.4280,0,U,68965,999,1253,.24092694E-3,.7771E-4,0
STARLINK-36402,2026-099R,2026-07-21T10:55:41.462400,15.34402773,.00011425,53.1604,1.0824,87.3417,272.7716,0,U,68966,999,1253,.6766617E-3,.22557E-3,0
STARLINK-36671,2026-099S,2026-07-21T10:39:51.640416,15.33575616,.00017544,53.1598,0.9958,89.3208,270.7995,0,U,68967,999,1253,.51837691E-3,.16728E-3,0
STARLINK-36665,2026-099T,2026-07-20T17:37:52.542624,15.34408136,.00010258,53.1607,4.3954,67.9523,292.1588,0,U,68968,999,1242,.4078071E-3,.1343E-3,0
STARLINK-36303,2026-099U,2026-07-21T10:37:45.674400,15.33570746,.00009868,53.1607,0.9821,129.9203,230.1886,0,U,68969,999,1253,.41226296E-3,.13219E-3,0
STARLINK-37257,2026-099V,2026-07-21T10:43:34.317408,15.34404462,.00009905,53.1606,1.0272,78.6489,281.4625,0,U,68970,999,1253,.75807112E-3,.25327E-3,0
STARLINK-37367,2026-099W,2026-07-21T10:40:32.717568,15.34402999,.00011421,53.1606,1.0173,79.9718,280.1413,0,U,68971,999,1253,.3468919E-3,.11363E-3,0
STARLINK-37259,2026-099X,2026-07-21T04:22:19.631424,15.34404504,.00005336,53.1613,2.2280,91.0869,269.0195,0,U,68972,999,1249,.49968708E-3,.16546E-3,0
STARLINK-37387,2026-099Y,2026-07-21T03:55:03.662112,15.34405243,.00011343,53.1600,2.1130,92.3396,267.7737,0,U,68973,999,1249,.25977915E-3,.8412E-4,0
STARLINK-37362,2026-099Z,2026-07-21T10:34:29.072928,15.34407187,.00014425,53.1612,0.9937,88.3845,271.7322,0,U,68974,999,1253,.62473596E-3,.20795E-3,0
STARLINK-36667,2026-099AA,2026-07-21T10:31:27.326208,15.34408240,.00015614,53.1600,0.9704,89.0724,271.0457,0,U,68975,999,1253,.7280032E-3,.24307E-3,0
STARLINK-36735,2026-099AB,2026-07-21T10:28:25.355712,15.34411129,.00010634,53.1600,0.9556,71.5928,288.5190,0,U,68976,999,1253,.63592755E-3,.21178E-3,0
STARLINK-37371,2026-099AC,2026-07-21T10:25:23.283264,15.34416799,.00012883,53.1613,0.9353,91.7091,268.4059,0,U,68977,999,1253,.73857423E-3,.24673E-3,0
STARLINK-37293,2026-099AD,2026-07-21T10:22:20.774496,15.34444539,.00001655,53.1622,0.9254,325.6306,34.4686,0,U,68978,999,1253,.11363804E-2,.38269E-3,0
STARLINK-36248,2026-099AE,2026-07-21T10:19:21.377856,15.34416492,.00013528,53.1600,0.9221,82.0492,278.0664,0,U,68979,999,1253,.63447483E-3,.21132E-3,0
STARLINK-37592,2026-101A,2026-07-21T13:01:05.096640,15.33454105,.00019279,97.2861,56.8390,96.0465,264.0997,0,U,69025,999,1183,.50899002E-3,.16398E-3,0
STARLINK-37637,2026-101B,2026-07-21T04:24:15.950016,15.33441170,.00016036,97.2854,56.5601,92.9431,267.1995,0,U,69026,999,1178,.15414189E-3,.4904E-4,0
STARLINK-37548,2026-101C,2026-07-21T03:13:47.292960,15.33453346,.0001761,97.2844,56.4736,111.0748,249.0684,0,U,69027,999,1177,.47633659E-3,.15338E-3,0
STARLINK-37634,2026-101D,2026-07-21T04:00:46.156032,15.33448997,.000139,97.2853,56.5843,94.9104,265.2297,0,U,69028,999,1178,.47555926E-3,.15311E-3,0
STARLINK-37635,2026-101E,2026-07-21T12:49:20.452800,15.33459413,.0002098,97.2872,56.8492,85.0190,275.1292,0,U,69029,999,1183,.66702572E-3,.21531E-3,0
STARLINK-37615,2026-101F,2026-07-21T03:02:02.789088,15.33449250,.00022534,97.2841,56.4853,106.5488,253.6003,0,U,69030,999,1177,.49936995E-3,.16084E-3,0
STARLINK-37240,2026-101G,2026-07-21T04:12:31.271616,15.33447365,.00017794,97.2860,56.5718,89.0310,271.1137,0,U,69031,999,1178,.32834363E-3,.10541E-3,0
STARLINK-37596,2026-101H,2026-07-21T05:22:59.993472,15.33450359,.0001726,97.2851,56.6559,91.0278,269.1163,0,U,69032,999,1179,.13436331E-3,.4266E-4,0
STARLINK-37591,2026-101J,2026-07-21T03:09:52.294464,15.33450186,.00018199,97.2856,56.4787,92.4427,267.7024,0,U,69033,999,1177,.23904994E-3,.7652E-4,0
STARLINK-37611,2026-101K,2026-07-21T12:45:25.683264,15.33463853,.00030411,97.2839,56.8548,77.2756,282.8827,0,U,69034,999,1183,.53828265E-3,.17355E-3,0
STARLINK-37512,2026-101L,2026-07-21T13:20:39.656256,15.33460527,.00020318,97.2864,56.9708,89.9388,270.2087,0,U,69035,999,1184,.4498233E-3,.14482E-3,0
