{"epoch":1784710044,"count":18256,"objects":[{"id":"68961","name":"STARLINK-36965","type":"PAYLOAD","l1":"1 68961U 26099L   26201.74936606  .00016160  00000-0  48830-3 0  9998","l2":"2 68961  53.1594   4.5073 0001032 130.5780 229.5312 15.34404681 12427"},{"id":"68962","name":"STARLINK-36765","type":"PAYLOAD","l1":"1 68962U 26099M   26202.46375422  .00022000  00000-0  65998-3 0  9996","l2":"2 68962  53.1603   1.1295 0000947  98.4338 261.6772 15.34417620 12539"},{"id":"68963","name":"STARLINK-36764","type":"PAYLOAD","l1":"1 68963U 26099N   26201.87543055  .00009105  00000-0  28032-3 0  9999","l2":"2 68963  53.1589   3.8555 0001085  78.3730 281.7394 15.34395230 12443"},{"id":"68964","name":"STARLINK-36731","type":"PAYLOAD","l1":"1 68964U 26099P   26201.74305427  .00016425  00000-0  49610-3 0  9993","l2":"2 68964  53.1600   4.4456 0001169  73.4894 286.6237 15.34406596 12421"},{"id":"68965","name":"STARLINK-36664","type":"PAYLOAD","l1":"1 68965U 26099Q   26202.45744721  .00007771  00000-0  24093-3 0  9999","l2":"2 68965  53.1591   1.0840 0000650  72.6793 287.4280 15.34392981 12535"},{"id":"68966","name":"STARLINK-36402","type":"PAYLOAD","l1":"1 68966U 26099R   26202.45534100  .00022557  00000-0  67666-3 0  9990","l2":"2 68966  53.1604   1.0824 0001143  87.3417 272.7716 15.34402773 12539"},{"id":"68967","name":"STARLINK-36671","type":"PAYLOAD","l1":"1 68967U 26099S   26202.44434769  .00016728  00000-0  51838-3 0  9997","l2":"2 68967  53.1598   0.9958 0001754  89.3208 270.7995 15.33575616 12539"},{"id":"68968","name":"STARLINK-36665","type":"PAYLOAD","l1":"1 68968U 26099T   26201.73463591  .00013430  00000-0  40781-3 0  9996","l2":"2 68968  53.1607   4.3954 0001026  67.9523 292.1588 15.34408136 12426"},{"id":"68969","name":"STARLINK-36303","type":"PAYLOAD","l1":"1 68969U 26099U   26202.44288975  .00013219  00000-0  41226-3 0  9997","l2":"2 68969  53.1607   0.9821 0000987 129.9203 230.1886 15.33570746 12532"},{"id":"68970","name":"STARLINK-37257","type":"PAYLOAD","l1":"1 68970U 26099V   26202.44692497  .00025327  00000-0  75807-3 0  9992","l2":"2 68970  53.1606   1.0272 0000991  78.6489 281.4625 15.34404462 12538"},{"id":"68971","name":"STARLINK-37367","type":"PAYLOAD","l1":"1 68971U 26099W   26202.44482312  .00011363  00000-0  34689-3 0  9994","l2":"2 68971  53.1606   1.0173 0001142  79.9718 280.1413 15.34402999 12531"},{"id":"68972","name":"STARLINK-37259","type":"PAYLOAD","l1":"1 68972U 26099X   26202.18217166  .00016546  00000-0  49969-3 0  9994","l2":"2 68972  53.1613   2.2280 0000534  91.0869 269.0195 15.34404504 12490"},{"id":"68973","name":"STARLINK-37387","type":"PAYLOAD","l1":"1 68973U 26099Y   26202.16323683  .00008412  00000-0  25978-3 0  9992","l2":"2 68973  53.1600   2.1130 0001134  92.3396 267.7737 15.34405243 12494"},{"id":"68974","name":"STARLINK-37362","type":"PAYLOAD","l1":"1 68974U 26099Z   26202.44061427  .00020795  00000-0  62474-3 0  9999","l2":"2 68974  53.1612   0.9937 0001442  88.3845 271.7322 15.34407187 12534"},{"id":"68975","name":"STARLINK-36667","type":"PAYLOAD","l1":"1 68975U 26099AA  26202.43851072  .00024307  00000-0  72800-3 0  9999","l2":"2 68975  53.1600   0.9704 0001561  89.0724 271.0457 15.34408240 12533"},{"id":"68976","name":"STARLINK-36735","type":"PAYLOAD","l1":"1 68976U 26099AB  26202.43640458  .00021178  00000-0  63593-3 0  9996","l2":"2 68976  53.1600   0.9556 0001063  71.5928 288.5190 15.34411129 12535"},{"id":"68977","name":"STARLINK-37371","type":"PAYLOAD","l1":"1 68977U 26099AC  26202.43429726  .00024673  00000-0  73857-3 0  9997","l2":"2 68977  53.1613   0.9353 0001288  91.7091 268.4059 15.34416799 12538"},{"id":"68978","name":"STARLINK-37293","type":"PAYLOAD","l1":"1 68978U 26099AD  26202.43218489  .00038269  00000-0  11364-2 0  9990","l2":"2 68978  53.1622   0.9254 0000165 325.6306  34.4686 15.34444539 12530"},{"id":"68979","name":"STARLINK-36248","type":"PAYLOAD","l1":"1 68979U 26099AE  26202.43010854  .00021132  00000-0  63447-3 0  9998","l2":"2 68979  53.1600   0.9221 0001353  82.0492 278.0664 15.34416492 12530"},{"id":"69025","name":"STARLINK-37592","type":"PAYLOAD","l1":"1 69025U 26101A   26202.54242010  .00016398  00000-0  50899-3 0  9993","l2":"2 69025  97.2861  56.8390 0001928  96.0465 264.0997 15.33454105 11839"},{"id":"69026","name":"STARLINK-37637","type":"PAYLOAD","l1":"1 69026U 26101B   26202.18351794  .00004904  00000-0  15414-3 0  9998","l2":"2 69026  97.2854  56.5601 0001604  92.9431 267.1995 15.33441170 11787"},{"id":"69027","name":"STARLINK-37548","type":"PAYLOAD","l1":"1 69027U 26101C   26202.13457515  .00015338  00000-0  47634-3 0  9994","l2":"2 69027  97.2844  56.4736 0001761 111.0748 249.0684 15.33453346 11774"},{"id":"69028","name":"STARLINK-37634","type":"PAYLOAD","l1":"1 69028U 26101D   26202.16720088  .00015311  00000-0  47556-3 0  9990","l2":"2 69028  97.2853  56.5843 0001390  94.9104 265.2297 15.33448997 11785"},{"id":"69029","name":"STARLINK-37635","type":"PAYLOAD","l1":"1 69029U 26101E   26202.53426450  .00021531  00000-0  66703-3 0  9994","l2":"2 69029  97.2872  56.8492 0002098  85.0190 275.1292 15.33459413 11838"},{"id":"69030","name":"STARLINK-37615","type":"PAYLOAD","l1":"1 69030U 26101F   26202.12642117  .00016084  00000-0  49937-3 0  9998","l2":"2 69030  97.2841  56.4853 0002253 106.5488 253.6003 15.33449250 11777"},{"id":"69031","name":"STARLINK-37240","type":"PAYLOAD","l1":"1 69031U 26101G   26202.17536194  .00010541  00000-0  32834-3 0  9991","l2":"2 69031  97.2860  56.5718 0001779  89.0310 271.1137 15.33447365 11780"},{"id":"69032","name":"STARLINK-37596","type":"PAYLOAD","l1":"1 69032U 26101H   26202.22430548  .00004266  00000-0  13436-3 0  9998","l2":"2 69032  97.2851  56.6559 0001726  91.0278 269.1163 15.33450359 11797"},{"id":"69033","name":"STARLINK-37591","type":"PAYLOAD","l1":"1 69033U 26101J   26202.13185526  .00007652  00000-0  23905-3 0  9996","l2":"2 69033  97.2856  56.4787 0001820  92.4427 267.7024 15.33450186 11776"},{"id":"69034","name":"STARLINK-37611","type":"PAYLOAD","l1":"1 69034U 26101K   26202.53154726  .00017355  00000-0  53828-3 0  9997","l2":"2 69034  97.2839  56.8548 0003041  77.2756 282.8827 15.33463853 11831"},{"id":"69035","name":"STARLINK-37512","type":"PAYLOAD","l1":"1 69035U 26101L   26202.55601454  .00014482  00000-0  44982-3 0  9994","l2":"2 69035  97.2864  56.9708 0002032  89.9388 270.2087 15.33460527 11844"}]}